NORAD_CAT_ID,OBJECT_NAME,OBJECT_TYPE,EPOCH,MEAN_MOTION,ECCENTRICITY,INCLINATION,RA_OF_ASC_NODE,ARG_OF_PERICENTER,MEAN_ANOMALY,BSTAR,MEAN_MOTION_DOT,MEAN_MOTION_DDOT,TLE_LINE0,TLE_LINE1,TLE_LINE2,SEMIMAJOR_AXIS,PERIOD,APOGEE,PERIGEE,DECAYED
51138.0,STARLINK-3177,PAYLOAD,2023-10-25 05:42:00,15.08857698,0.0001468,53.2165,228.7755,82.6543,277.4616,0.00044987,6.882e-05,0.0,0 STARLINK-3177,1 51138U 22005AL  23298.23750783  .00006882  00000-0  44987-3 0  9995,2 51138  53.2165 228.7755 0001468  82.6543 277.4616 15.08857698 99047,6917.826,95.436,540.707,538.676,0.0
51138.0,STARLINK-3177,PAYLOAD,2023-10-26 03:57:24,15.088459,0.0001462,53.2156,224.6119,80.7394,279.3764,2.0951e-05,4.6e-07,0.0,0 STARLINK-3177,1 51138U 22005AL  23299.16486957  .00000046  00000-0  20951-4 0  9999,2 51138  53.2156 224.6119 0001462  80.7394 279.3764 15.08845900 99186,6917.862,95.437,540.739,538.716,0.0
51138.0,STARLINK-3177,PAYLOAD,2023-10-26 05:32:47,15.08846013,0.0001496,53.2165,224.3158,81.5676,278.5485,1.7614e-05,-8e-08,0.0,0 STARLINK-3177,1 51138U 22005AL  23299.23110956 -.00000008  00000-0  17614-4 0  9991,2 51138  53.2165 224.3158 0001496  81.5676 278.5485 15.08846013 98079,6917.862,95.437,540.762,538.692,0.0
51138.0,STARLINK-3177,PAYLOAD,2023-10-27 03:48:11,15.08866902,0.0001485,53.216,220.1535,92.7944,267.3218,0.00055284,8.528e-05,0.0,0 STARLINK-3177,1 51138U 22005AL  23300.15846067  .00008528  00000-0  55284-3 0  9992,2 51138  53.2160 220.1535 0001485  92.7944 267.3218 15.08866902 99336,6917.798,95.436,540.69,538.636,0.0
51138.0,STARLINK-3177,PAYLOAD,2023-10-27 11:45:07,15.0884861,0.0001548,53.2162,218.6664,72.8602,287.2559,0.00035899,5.431e-05,0.0,0 STARLINK-3177,1 51138U 22005AL  23300.48966695  .00005431  00000-0  35899-3 0  9998,2 51138  53.2162 218.6664 0001548  72.8602 287.2559 15.08848610 99383,6917.854,95.437,540.79,538.648,0.0
51138.0,STARLINK-3177,PAYLOAD,2023-10-28 00:28:12,15.08830617,0.0001581,53.2159,216.2872,73.6297,286.4868,-0.00017786,-3.117e-05,0.0,0 STARLINK-3177,1 51138U 22005AL  23301.01959363 -.00003117  00000-0 -17786-3 0  9998,2 51138  53.2159 216.2872 0001581  73.6297 286.4868 15.08830617 99461,6917.909,95.438,540.868,538.68,0.0
51138.0,STARLINK-3177,PAYLOAD,2023-10-28 11:35:55,15.08836911,0.0001519,53.216,214.2083,79.2869,280.8294,0.00026167,3.879e-05,0.0,0 STARLINK-3177,1 51138U 22005AL  23301.48327616  .00003879  00000-0  26167-3 0  9995,2 51138  53.2160 214.2083 0001519  79.2869 280.8294 15.08836911 98411,6917.89,95.438,540.806,538.704,0.0
51138.0,STARLINK-3177,PAYLOAD,2023-10-28 17:57:27,15.08831908,0.0001448,53.2154,213.0172,79.8588,280.2567,0.00056914,8.78e-05,0.0,0 STARLINK-3177,1 51138U 22005AL  23301.74823989  .00008780  00000-0  56914-3 0  9997,2 51138  53.2154 213.0172 0001448  79.8588 280.2567 15.08831908 98457,6917.905,95.438,540.772,538.768,0.0
51138.0,STARLINK-3177,PAYLOAD,2023-10-29 03:29:46,15.08867417,0.0001501,53.215,211.2323,85.5656,274.5508,0.0015652,0.00024729,0.0,0 STARLINK-3177,1 51138U 22005AL  23302.14567475  .00024729  00000-0  15652-2 0  9991,2 51138  53.2150 211.2323 0001501  85.5656 274.5508 15.08867417 99637,6917.797,95.436,540.7,538.623,0.0
51138.0,STARLINK-3177,PAYLOAD,2023-10-29 11:26:42,15.08854284,0.0001459,53.2159,209.7469,83.4954,276.6204,0.00092291,0.00014436,0.0,0 STARLINK-3177,1 51138U 22005AL  23302.47687663  .00014436  00000-0  92291-3 0  9998,2 51138  53.2159 209.7469 0001459  83.4954 276.6204 15.08854284 99688,6917.837,95.437,540.711,538.692,0.0
51138.0,STARLINK-3177,PAYLOAD,2023-10-29 17:48:14,15.08851663,0.0002019,53.2156,208.5571,88.1707,271.9517,0.00086596,0.00013525,0.0,0 STARLINK-3177,1 51138U 22005AL  23302.74183832  .00013525  00000-0  86596-3 0  9996,2 51138  53.2156 208.5571 0002019  88.1707 271.9517 15.08851663 99725,6917.845,95.437,541.106,538.313,0.0
51138.0,STARLINK-3177,PAYLOAD,2023-10-29 22:34:24,15.08853842,0.0001478,53.2161,207.6645,91.6817,268.4345,0.00065679,0.00010184,0.0,0 STARLINK-3177,1 51138U 22005AL  23302.94055557  .00010184  00000-0  65679-3 0  9997,2 51138  53.2161 207.6645 0001478  91.6817 268.4345 15.08853842 98632,6917.838,95.437,540.726,538.681,0.0
51138.0,STARLINK-3177,PAYLOAD,2023-10-30 20:49:48,15.08842024,0.0001319,53.2164,203.5011,90.984,269.1303,0.00040896,6.227e-05,0.0,0 STARLINK-3177,1 51138U 22005AL  23303.86791878  .00006227  00000-0  40896-3 0  9999,2 51138  53.2164 203.5011 0001319  90.9840 269.1303 15.08842024 99890,6917.874,95.437,540.652,538.827,0.0
51138.0,STARLINK-3177,PAYLOAD,2023-10-30 22:25:11,15.08843938,0.000136,53.2165,203.2037,89.9002,270.2146,0.00049414,7.586e-05,0.0,0 STARLINK-3177,1 51138U 22005AL  23303.93415871  .00007586  00000-0  49414-3 0  9997,2 51138  53.2165 203.2037 0001360  89.9002 270.2146 15.08843938 98780,6917.868,95.437,540.674,538.793,0.0
51138.0,STARLINK-3177,PAYLOAD,2023-10-31 20:40:35,15.08842046,0.0001367,53.2157,199.0404,86.5297,273.5851,0.00027783,4.137e-05,0.0,0 STARLINK-3177,1 51138U 22005AL  23304.86152054  .00004137  00000-0  27783-3 0  9995,2 51138  53.2157 199.0404 0001367  86.5297 273.5851 15.08842046100048,6917.874,95.437,540.685,538.793,0.0
51138.0,STARLINK-3177,PAYLOAD,2023-10-31 22:15:58,15.08843527,0.0001362,53.216,198.7434,88.0229,272.0919,0.0002506,3.703e-05,0.0,0 STARLINK-3177,1 51138U 22005AL  23304.92775990  .00003703  00000-0  25060-3 0  9996,2 51138  53.2160 198.7434 0001362  88.0229 272.0919 15.08843527 98936,6917.87,95.437,540.677,538.792,0.0
51138.0,STARLINK-3177,PAYLOAD,2023-10-31 23:51:21,15.08847833,0.0001403,53.2159,198.4433,93.7711,266.3441,0.00034456,5.201e-05,0.0,0 STARLINK-3177,1 51138U 22005AL  23304.99399846  .00005201  00000-0  34456-3 0  9999,2 51138  53.2159 198.4433 0001403  93.7711 266.3441 15.08847833 98946,6917.856,95.437,540.692,538.751,0.0
51138.0,STARLINK-3177,PAYLOAD,2023-11-01 20:31:22,15.08841322,0.0001358,53.2156,194.5796,91.64,268.4748,0.00013436,1.851e-05,0.0,0 STARLINK-3177,1 51138U 22005AL  23305.85512154  .00001851  00000-0  13436-3 0  9996,2 51138  53.2156 194.5796 0001358  91.6400 268.4748 15.08841322100194,6917.876,95.437,540.681,538.802,0.0
51138.0,STARLINK-3177,PAYLOAD,2023-11-01 22:06:45,15.08842714,0.0001435,53.2158,194.2824,87.8194,272.2963,0.00016936,2.409e-05,0.0,0 STARLINK-3177,1 51138U 22005AL  23305.92136079  .00002409  00000-0  16936-3 0  9990,2 51138  53.2158 194.2824 0001435  87.8194 272.2963 15.08842714 99081,6917.872,95.437,540.73,538.744,0.0
51138.0,STARLINK-3177,PAYLOAD,2023-11-02 09:14:27,15.08845378,0.0001342,53.2149,192.199,78.5406,281.5736,0.00018788,2.704e-05,0.0,0 STARLINK-3177,1 51138U 22005AL  23306.38503933  .00002704  00000-0  18788-3 0  9993,2 51138  53.2149 192.1990 0001342  78.5406 281.5736 15.08845378 99150,6917.864,95.437,540.657,538.801,0.0
51138.0,STARLINK-3177,PAYLOAD,2023-11-02 21:57:32,15.0883743,0.0001535,53.2167,189.8216,85.041,275.0757,1.2001e-05,-9.7e-07,0.0,0 STARLINK-3177,1 51138U 22005AL  23306.91496368 -.00000097  00000-0  12001-4 0  9992,2 51138  53.2167 189.8216 0001535  85.0410 275.0757 15.08837430 99236,6917.888,95.438,540.815,538.691,0.0
51138.0,STARLINK-3177,PAYLOAD,2023-11-02 23:32:55,15.08840106,0.0001472,53.2163,189.5268,93.0213,267.0947,5.086e-05,5.22e-06,0.0,0 STARLINK-3177,1 51138U 22005AL  23306.98120105  .00000522  00000-0  50860-4 0  9999,2 51138  53.2163 189.5268 0001472  93.0213 267.0947 15.08840106100369,6917.88,95.438,540.763,538.727,0.0
51138.0,STARLINK-3177,PAYLOAD,2023-11-03 09:05:14,15.08839961,0.0001448,53.2158,187.7429,94.6874,265.4283,6.584e-05,7.6e-06,0.0,0 STARLINK-3177,1 51138U 22005AL  23307.37864182  .00000760  00000-0  65840-4 0  9991,2 51138  53.2158 187.7429 0001448  94.6874 265.4283 15.08839961 99308,6917.881,95.438,540.747,538.744,0.0
51138.0,STARLINK-3177,PAYLOAD,2023-11-03 21:48:19,15.08842513,0.0001547,53.2155,185.364,95.8403,264.2765,8.786e-05,1.111e-05,0.0,0 STARLINK-3177,1 51138U 22005AL  23307.90856192  .00001111  00000-0  87860-4 0  9999,2 51138  53.2155 185.3640 0001547  95.8403 264.2765 15.08842513 99382,6917.873,95.437,540.808,538.668,0.0
51138.0,STARLINK-3177,PAYLOAD,2023-11-04 00:59:05,15.08849881,0.0001693,53.2159,184.7683,85.2995,274.819,7.9422e-05,9.76e-06,0.0,0 STARLINK-3177,1 51138U 22005AL  23308.04103834  .00000976  00000-0  79422-4 0  9996,2 51138  53.2159 184.7683 0001693  85.2995 274.8190 15.08849881100520,6917.85,95.437,540.886,538.544,0.0
51138.0,STARLINK-3177,PAYLOAD,2023-11-04 20:03:43,15.08839955,0.0001774,53.2166,181.1975,73.7221,286.3966,0.00014585,2.034e-05,0.0,0 STARLINK-3177,1 51138U 22005AL  23308.83592584  .00002034  00000-0  14585-3 0  9992,2 51138  53.2166 181.1975 0001774  73.7221 286.3966 15.08839955100640,6917.881,95.438,540.973,538.518,0.0
51138.0,STARLINK-3177,PAYLOAD,2023-11-05 08:46:48,15.08850922,0.0001469,53.2158,178.8227,90.8593,269.2568,0.0002552,3.777e-05,0.0,0 STARLINK-3177,1 51138U 22005AL  23309.36583938  .00003777  00000-0  25520-3 0  9990,2 51138  53.2158 178.8227 0001469  90.8593 269.2568 15.08850922100721,6917.847,95.437,540.728,538.696,0.0
51138.0,STARLINK-3177,PAYLOAD,2023-11-05 21:29:52,15.08869816,0.0001752,53.2158,176.4403,88.4518,271.6675,0.0005689,8.785e-05,0.0,0 STARLINK-3177,1 51138U 22005AL  23309.89574950  .00008785  00000-0  56890-3 0  9990,2 51138  53.2158 176.4403 0001752  88.4518 271.6675 15.08869816 99686,6917.789,95.436,540.866,538.442,0.0
51138.0,STARLINK-3177,PAYLOAD,2023-11-06 00:40:38,15.08885238,0.0001608,53.2163,175.8448,96.3643,263.7533,0.0009398,0.00014719,0.0,0 STARLINK-3177,1 51138U 22005AL  23310.02822277  .00014719  00000-0  93980-3 0  9990,2 51138  53.2163 175.8448 0001608  96.3643 263.7533 15.08885238100821,6917.742,95.435,540.719,538.495,0.0
51138.0,STARLINK-3177,PAYLOAD,2023-11-06 08:37:34,15.08856723,0.0002067,53.2169,174.3579,79.9282,280.1943,0.00020017,2.9e-05,0.0,0 STARLINK-3177,1 51138U 22005AL  23310.35943013  .00002900  00000-0  20017-3 0  9998,2 51138  53.2169 174.3579 0002067  79.9282 280.1943 15.08856723100872,6917.829,95.436,541.124,538.264,0.0
